HODOYOSHI-4             
1 40011U 14033B   26197.14843588  .00001003  00000+0  11400-3 0  9995
2 40011  97.5453  20.5745 0022680 206.1866 153.8206 14.88192558653113
DEIMOS-2                
1 40013U 14033D   26197.18835184  .00000936  00000+0  93377-4 0  9992
2 40013  97.5787  70.6536 0001020 108.9518 251.1813 14.93796489642053
HODOYOSHI-3             
1 40015U 14033F   26197.01620440  .00000477  00000+0  60987-4 0  9994
2 40015  97.6447 358.9018 0031313 259.0598 100.7094 14.85438102651900
SPOT 7                  
1 40053U 14034A   26196.94673106  .00000051  00000+0  19667-4 0  9992
2 40053  98.0619 258.6952 0001603  94.1131 266.0253 14.60980682641338
SKYSAT-B                
1 40072U 14037D   26196.83755785  .00000600  00000+0  71934-4 0  9993
2 40072  98.3854 157.4397 0005626 170.7304 189.4016 14.88092801650224
WORLDVIEW-3 (WV-3)      
1 40115U 14048A   26197.20783855  .00000366  00000+0  49097-4 0  9998
2 40115  97.8556 271.6389 0001375 154.4565 205.6718 14.85065076646215
GAOFEN-2                
1 40118U 14049A   26197.16258030  .00000270  00000+0  41752-4 0  9993
2 40118  98.0100 261.3403 0008322 131.7573 228.4352 14.80928907643529
YAOGAN-21               
1 40143U 14053A   26197.20039447  .00004105  00000+0  15854-3 0  9994
2 40143  97.1450 236.1955 0007649   4.7847 355.3464 15.26768029659384
YAOGAN-22               
1 40275U 14063A   26197.00903101 -.00000049  00000+0 -62870-5 0  9993
2 40275 100.7763 348.7655 0006878 123.5095 236.6674 13.15531517563602
ASNARO                  
1 40298U 14070A   26197.19788686  .00004694  00000+0  22490-3 0  9995
2 40298  97.3449 272.5324 0004809  85.2761 274.9023 15.19390534648416
YAOGAN-24               
1 40310U 14072A   26197.22970042  .00000384  00000+0  63271-4 0  9990
2 40310  98.1525 334.8147 0014694 166.3203 193.8407 14.76119623628003
CBERS 4                 
1 40336U 14079A   26197.17254712 -.00000073  00000+0 -10522-4 0  9996
2 40336  98.3518 253.0925 0000756  52.8833 307.2422 14.35515878608118
YAOGAN-26               
1 40362U 14088A   26197.15912294  .00012945  00000+0  24528-3 0  9998
2 40362  97.0643 196.7133 0001687 336.9307  23.1869 15.48469435642188
SMAP                    
1 40376U 15003A   26197.13959631  .00000173  00000+0  42453-4 0  9993
2 40376  98.1284 203.8250 0001607  94.6189 265.5196 14.63389587611854
KOMPSAT-3A              
1 40536U 15014A   26197.14042252  .00020020  00000+0  27479-3 0  9999
2 40536  97.6891 190.6528 0056195  72.3351 288.4027 15.55463751626319
SENTINEL-2A             
1 40697U 15028A   26197.16574806  .00000025  00000+0  26021-4 0  9995
2 40697  98.5682 271.6046 0001273  94.9889 265.1439 14.30814619577873
GAOFEN-8                
1 40701U 15030A   26197.20504440  .00006566  00000+0  13200-3 0  9996
2 40701  97.6885  32.3372 0009952  92.3941 267.8447 15.46960644615937
CARBONITE 1 (CBNT-1)    
1 40718U 15032D   26197.18331719  .00000917  00000+0  11707-3 0  9994
2 40718  97.6514  14.0381 0013989 193.6398 166.4441 14.83669097593646
YAOGAN-27               
1 40878U 15040A   26197.22054017  .00000144  00000+0  49035-3 0  9995
2 40878 100.1166 182.3454 0008592 142.8232 217.3478 13.16073152521488
GAOFEN-9 01             
1 40894U 15047A   26197.21238573  .00000461  00000+0  62754-4 0  9996
2 40894  97.6264 231.5870 0028393  47.2831 313.0766 14.82936057584498
YAOGAN-28               
1 41026U 15064A   26197.21014222  .00003476  00000+0  13063-3 0  9993
2 41026  97.3113 334.8926 0012074  89.9268 270.3355 15.27767373595114
YAOGAN-29               
1 41038U 15069A   26197.18885965  .00000561  00000+0  75507-4 0  9991
2 41038  98.0016 225.8661 0000642  14.8615 345.2617 14.83108854574926
KENT RIDGE 1            
1 41167U 15077B   26196.77914682  .00002417  00000+0  67771-4 0  9992
2 41167  14.9805  53.3190 0008310 283.4619  76.4777 15.23285837585464
GAOFEN-4                
1 41194U 15083A   26197.09281006 -.00000345  00000+0  00000+0 0  9998
2 41194   0.4297  83.7450 0004273 126.0507 223.2413  1.00272137 38817
JASON-3                 
1 41240U 16002A   26197.20664088 -.00000027  00000+0  13789-3 0  9999
2 41240  66.0416  64.8258 0008173 270.8773  89.1309 12.87628709490982
SENTINEL-3A             
1 41335U 16011A   26197.18019272  .00000046  00000+0  36896-4 0  9995
2 41335  98.6237 264.1454 0001355  89.5764 270.5572 14.26739925542199
ZIYUAN 3-02 (ZY 3-02)   
1 41556U 16033A   26197.19615701  .00002701  00000+0  12304-3 0  9991
2 41556  97.3827 272.4128 0014186 181.4605 178.6592 15.21439873562396
CARTOSAT-2C             
1 41599U 16040A   26197.17258417  .00003606  00000+0  17406-3 0  9994
2 41599  97.4467 256.7493 0009447  41.7650 318.4304 15.19270985558110
SKYSAT-C1               
1 41601U 16040C   26197.06622875  .00004970  00000+0  14048-3 0  9993
2 41601  96.9548 227.2267 0000242 270.9948  89.1270 15.36756692562303
LAPAN-A3                
1 41603U 16040E   26197.23431226  .00001756  00000+0  56909-4 0  9994
2 41603  97.1505 192.4310 0008240 271.6222  88.4078 15.33281520559261
GAOFEN-3                
1 41727U 16049A   26197.22271155  .00000053  00000+0  29393-4 0  9998
2 41727  98.4010 204.5708 0001765  83.9982 276.1409 14.42218996522834
