OBJECT_NAME,OBJECT_ID,EPOCH,MEAN_MOTION,ECCENTRICITY,INCLINATION,RA_OF_ASC_NODE,ARG_OF_PERICENTER,MEAN_ANOMALY,EPHEMERIS_TYPE,CLASSIFICATION_TYPE,NORAD_CAT_ID,ELEMENT_SET_NO,REV_AT_EPOCH,BSTAR,MEAN_MOTION_DOT,MEAN_MOTION_DDOT
HODOYOSHI-4,2014-033B,2026-07-16T03:33:44.860032,14.88192558,.002268,97.5453,20.5745,206.1866,153.8206,0,U,40011,999,65311,.114E-3,.1003E-4,0
DEIMOS-2,2014-033D,2026-07-16T04:31:13.598976,14.93796489,.000102,97.5787,70.6536,108.9518,251.1813,0,U,40013,999,64205,.93377E-4,.936E-5,0
HODOYOSHI-3,2014-033F,2026-07-16T00:23:20.060160,14.85438102,.0031313,97.6447,358.9018,259.0598,100.7094,0,U,40015,999,65190,.60987E-4,.477E-5,0
SPOT 7,2014-034A,2026-07-15T22:43:17.563584,14.60980682,.00016039,98.0619,258.6952,94.1131,266.0253,0,U,40053,999,64133,.19667332E-4,.51E-6,0
SKYSAT-B,2014-037D,2026-07-15T20:06:04.998240,14.88092801,.00056261,98.3854,157.4397,170.7304,189.4016,0,U,40072,999,65022,.71933668E-4,.6E-5,0
WORLDVIEW-3 (WV-3),2014-048A,2026-07-16T04:59:17.250720,14.85065076,.0001375,97.8556,271.6389,154.4565,205.6718,0,U,40115,999,64621,.49097E-4,.366E-5,0
GAOFEN-2,2014-049A,2026-07-16T03:54:06.937920,14.80928907,.0008322,98.0100,261.3403,131.7573,228.4352,0,U,40118,999,64352,.41752E-4,.27E-5,0
YAOGAN-21,2014-053A,2026-07-16T04:48:34.082208,15.26768029,.0007649,97.1450,236.1955,4.7847,355.3464,0,U,40143,999,65938,.15854E-3,.4105E-4,0
YAOGAN-22,2014-063A,2026-07-16T00:13:00.279264,13.15531517,.0006878,100.7763,348.7655,123.5095,236.6674,0,U,40275,999,56360,-.6287E-5,-.49E-6,0
ASNARO,2014-070A,2026-07-16T04:44:57.424704,15.19390534,.0004809,97.3449,272.5324,85.2761,274.9023,0,U,40298,999,64841,.2249E-3,.4694E-4,0
YAOGAN-24,2014-072A,2026-07-16T05:30:46.116288,14.76119623,.0014694,98.1525,334.8147,166.3203,193.8407,0,U,40310,999,62800,.63271E-4,.384E-5,0
CBERS 4,2014-079A,2026-07-16T04:08:28.071168,14.35515878,.0000756,98.3518,253.0925,52.8833,307.2422,0,U,40336,999,60811,-.10522E-4,-.73E-6,0
YAOGAN-26,2014-088A,2026-07-16T03:49:08.222016,15.48469435,.0001687,97.0643,196.7133,336.9307,23.1869,0,U,40362,999,64218,.24528E-3,.12945E-3,0
SMAP,2015-003A,2026-07-16T03:21:01.121184,14.63389587,.0001607,98.1284,203.8250,94.6189,265.5196,0,U,40376,999,61185,.42453E-4,.173E-5,0
KOMPSAT-3A,2015-014A,2026-07-16T03:22:12.505728,15.55463751,.0056195,97.6891,190.6528,72.3351,288.4027,0,U,40536,999,62631,.27479E-3,.2002E-3,0
SENTINEL-2A,2015-028A,2026-07-16T03:58:40.632384,14.30814619,.0001273,98.5682,271.6046,94.9889,265.1439,0,U,40697,999,57787,.26021E-4,.25E-6,0
GAOFEN-8,2015-030A,2026-07-16T04:55:15.836160,15.46960644,.0009952,97.6885,32.3372,92.3941,267.8447,0,U,40701,999,61593,.132E-3,.6566E-4,0
CARBONITE 1 (CBNT-1),2015-032D,2026-07-16T04:23:58.605216,14.83669097,.0013989,97.6514,14.0381,193.6398,166.4441,0,U,40718,999,59364,.11707E-3,.917E-5,0
YAOGAN-27,2015-040A,2026-07-16T05:17:34.670688,13.16073152,.0008592,100.1166,182.3454,142.8232,217.3478,0,U,40878,999,52148,.49035E-3,.144E-5,0
GAOFEN-9 01,2015-047A,2026-07-16T05:05:50.127072,14.82936057,.0028393,97.6264,231.5870,47.2831,313.0766,0,U,40894,999,58449,.62754E-4,.461E-5,0
YAOGAN-28,2015-064A,2026-07-16T05:02:36.287808,15.27767373,.0012074,97.3113,334.8926,89.9268,270.3355,0,U,41026,999,59511,.13063E-3,.3476E-4,0
YAOGAN-29,2015-069A,2026-07-16T04:31:57.473760,14.83108854,.0000642,98.0016,225.8661,14.8615,345.2617,0,U,41038,999,57492,.75507E-4,.561E-5,0
KENT RIDGE 1,2015-077B,2026-07-15T18:41:58.285248,15.23285837,.00083101,14.9805,53.3190,283.4619,76.4777,0,U,41167,999,58546,.67771257E-4,.2417E-4,0
GAOFEN-4,2015-083A,2026-07-16T02:13:38.789184,1.00272137,.0004273,0.4297,83.7450,126.0507,223.2413,0,U,41194,999,3881,0,-.345E-5,0
JASON-3,2016-002A,2026-07-16T04:57:33.772032,12.87628709,.0008173,66.0416,64.8258,270.8773,89.1309,0,U,41240,999,49098,.13789E-3,-.27E-6,0
SENTINEL-3A,2016-011A,2026-07-16T04:19:28.651008,14.26739925,.0001355,98.6237,264.1454,89.5764,270.5572,0,U,41335,999,54219,.36896E-4,.46E-6,0
ZIYUAN 3-02 (ZY 3-02),2016-033A,2026-07-16T04:42:27.965664,15.21439873,.0014186,97.3827,272.4128,181.4605,178.6592,0,U,41556,999,56239,.12304E-3,.2701E-4,0
CARTOSAT-2C,2016-040A,2026-07-16T04:08:31.272288,15.19270985,.0009447,97.4467,256.7493,41.7650,318.4304,0,U,41599,999,55811,.17406E-3,.3606E-4,0
SKYSAT-C1,2016-040C,2026-07-16T01:35:22.164000,15.36756692,.0000242,96.9548,227.2267,270.9948,89.1270,0,U,41601,999,56230,.14048E-3,.497E-4,0
LAPAN-A3,2016-040E,2026-07-16T05:37:24.579264,15.33281520,.000824,97.1505,192.4310,271.6222,88.4078,0,U,41603,999,55926,.56909E-4,.1756E-4,0
GAOFEN-3,2016-049A,2026-07-16T05:20:42.277920,14.42218996,.0001765,98.4010,204.5708,83.9982,276.1409,0,U,41727,999,52283,.29393E-4,.53E-6,0
